ELEKTRO-L 3             
1 44903U 19095A   26181.53026391 -.00000086  00000+0  00000+0 0  9994
2 44903   0.2899  82.0247 0001527   7.1184  96.3280  1.00272398 23846
SHIJIAN-20 (SJ-20)      
1 44910U 19097A   26181.89628159  .00000142  00000+0  00000+0 0  9995
2 44910   4.9515  74.9003 0015647  56.2439 155.2747  1.00275341 23839
TJS-5                   
1 44978U 20002A   26182.05530701 -.00000332  00000+0  00000+0 0  9993
2 44978   0.0287  60.3924 0008013 351.4790 354.6458  1.00271365 23843
GSAT-30                 
1 45026U 20005A   26182.10197766 -.00000155  00000+0  00000+0 0  9990
2 45026   0.0160  57.6811 0003699  29.5530 311.6695  1.00271989 23648
EUTELSAT KONNECT        
1 45027U 20005B   26182.08698426  .00000061  00000+0  00000+0 0  9992
2 45027   0.0695  93.8576 0002509 123.4215 100.4006  1.00274786 24475
JCSAT-17                
1 45245U 20013A   26181.82732450 -.00000303  00000+0  00000+0 0  9990
2 45245   5.3917 356.9933 0003163 107.0629 248.6823  1.00270804 23362
GEO-KOMPSAT-2B          
1 45246U 20013B   26181.99211399 -.00000333  00000+0  00000+0 0  9996
2 45246   0.0537 209.6757 0000398 343.4792 211.3155  1.00273662 23411
BEIDOU-3 G2             
1 45344U 20017A   26182.17266233 -.00000132  00000+0  00000+0 0  9994
2 45344   2.8915  47.5524 0002588  43.8424 330.0887  1.00271775 23400
AEHF-6 (USA 298)        
1 45465U 20022B   26182.12336497 -.00000287  00000+0  00000+0 0  9990
2 45465   2.5192 301.3286 0042397  17.0947 142.8231  1.00266704 23159
BEIDOU-3 G3             
1 45807U 20040A   26182.10735103 -.00000345  00000+0  00000+0 0  9990
2 45807   2.4803  67.4760 0002511 332.3137  28.5872  1.00272513 22203
APSTAR-6D               
1 45863U 20045A   26180.68586466 -.00000307  00000+0  00000+0 0  9992
2 45863   0.0501  93.2652 0002259   0.9714 204.4597  1.00270673 21987
KOREASAT 116            
1 45920U 20048A   26182.04975227 -.00000351  00000+0  00000+0 0  9997
2 45920   0.0269 293.5682 0001387 198.4424 281.2283  1.00271099 21777
EXPRESS 103             
1 45985U 20053A   26182.10466435 -.00000270  00000+0  00000+0 0  9997
2 45985   0.0213 282.1249 0000438 127.6593   3.5574  1.00273430 21787
EXPRESS 80              
1 45986U 20053B   26182.00264757  .00000000  00000+0  00000+0 0  9990
2 45986   0.0185   4.0958 0001904 203.1270 152.7673  1.00269709 21764
BSAT-4B                 
1 46112U 20056A   26182.10726435 -.00000340  00000+0  00000+0 0  9990
2 46112   0.0511 160.2221 0004344 320.0320 307.3524  1.00272690 21523
MEV-2                   
1 46113U 20056B   26181.94273499  .00000000  00000+0  00000+0 0  9991
2 46113   0.0358 272.5237 0000244 243.8402 101.0248  1.00272440 80840
GALAXY 30 (G-30)        
1 46114U 20056C   26182.21642161  .00000047  00000+0  00000+0 0  9990
2 46114   0.0170  37.0651 0002242  61.1179 133.9929  1.00272876 21432
GAOFEN-13 01            
1 46610U 20071A   26181.69697775 -.00000352  00000+0  00000+0 0  9990
2 46610   0.4313  86.4106 0044706 119.6201  81.9069  1.00274904 21054
TIANTONG-1 2            
1 46916U 20082A   26182.03902149 -.00000344  00000+0  00000+0 0  9995
2 46916   0.7736 329.4790 0001710 127.3923 321.2092  1.00270200 20790
LUCAS (JDRS-1)          
1 47202U 20089A   26182.03217480 -.00000225  00000+0  00000+0 0  9996
2 47202   0.0620 268.1315 0002434 169.7756 303.5532  1.00269956 20556
SXM-7                   
1 47240U 20096A   26182.19098918 -.00000195  00000+0  00000+0 0  9992
2 47240   0.0253  93.7837 0003983  26.1597 142.9000  1.00270727  7581
CMS-01                  
1 47256U 20099A   26182.10197766 -.00000154  00000+0  00000+0 0  9999
2 47256   0.0421  92.5658 0003020 182.1625 124.1430  1.00271814 20335
TURKSAT 5A              
1 47306U 21001A   26182.02038808  .00000165  00000+0  00000+0 0  9992
2 47306   0.0184  65.1971 0000400  65.5106 186.6416  1.00272167 20102
TIANTONG-1 3            
1 47321U 21003A   26181.67390939 -.00000143  00000+0  00000+0 0  9994
2 47321   1.7455 340.1502 0003445 122.4214 140.3050  1.00273538 20091
TJS-6                   
1 47613U 21010A   26182.18586419  .00000053  00000+0  00000+0 0  9992
2 47613   0.2159 263.0360 0003202 224.2677  37.3363  1.00270128 19946
SBIRS GEO-5 (USA 315)   
1 48618U 21042A   26181.95600436 -.00000254  00000+0  00000+0 0  9997
2 48618   5.0864 329.2226 0001893 135.3330 252.4368  1.00272068 18912
FENGYUN 4B              
1 48808U 21047A   26182.10631101 -.00000320  00000+0  00000+0 0  9998
2 48808   0.1860  78.9368 0005782 278.6965  64.5399  1.00270782 18700
SXM-8                   
1 48838U 21049A   26180.64290567 -.00000194  00000+0  00000+0 0  9996
2 48838   0.0147  14.0541 0005660  20.3526  29.6141  1.00271450 18704
TIANLIAN 1-05           
1 49011U 21063A   26180.87699583  .00000118  00000+0  00000+0 0  9997
2 49011   1.6252  80.6093 0000881  28.4331 141.4657  1.00274217 18200
STAR ONE D2             
1 49055U 21069A   26182.07155899  .00000000  00000+0  00000+0 0  9992
2 49055   0.0158  16.9034 0002067 108.5319 109.3606  1.00268755 18080
EUTELSAT QUANTUM        
1 49056U 21069B   26182.16624897  .00000136  00000+0  00000+0 0  9992
2 49056   0.0106  20.0799 0002670  79.5859 287.0962  1.00272148 18062
ZHONGXING-2E            
1 49062U 21071A   26182.10492434 -.00000280  00000+0  00000+0 0  9997
2 49062   0.0394 121.8961 0002289  16.6682 276.4202  1.00269115 18172
