OBJECT_NAME,OBJECT_ID,EPOCH,MEAN_MOTION,ECCENTRICITY,INCLINATION,RA_OF_ASC_NODE,ARG_OF_PERICENTER,MEAN_ANOMALY,EPHEMERIS_TYPE,CLASSIFICATION_TYPE,NORAD_CAT_ID,ELEMENT_SET_NO,REV_AT_EPOCH,BSTAR,MEAN_MOTION_DOT,MEAN_MOTION_DDOT
ELEKTRO-L 3,2019-095A,2026-06-30T12:43:34.801824,1.00272398,.00015271,0.2899,82.0247,7.1184,96.3280,0,U,44903,999,2384,0,-.86E-6,0
SHIJIAN-20 (SJ-20),2019-097A,2026-06-30T21:30:38.729376,1.00275341,.0015647,4.9515,74.9003,56.2439,155.2747,0,U,44910,999,2383,0,.142E-5,0
TJS-5,2020-002A,2026-07-01T01:19:38.525664,1.00271365,.0008013,0.0287,60.3924,351.4790,354.6458,0,U,44978,999,2384,0,-.332E-5,0
GSAT-30,2020-005A,2026-07-01T02:26:50.869824,1.00271989,.0003699,0.0160,57.6811,29.5530,311.6695,0,U,45026,999,2364,0,-.155E-5,0
EUTELSAT KONNECT,2020-005B,2026-07-01T02:05:15.440064,1.00274786,.0002509,0.0695,93.8576,123.4215,100.4006,0,U,45027,999,2447,0,.61E-6,0
JCSAT-17,2020-013A,2026-06-30T19:51:20.836800,1.00270804,.00031635,5.3917,356.9933,107.0629,248.6823,0,U,45245,999,2336,0,-.303E-5,0
GEO-KOMPSAT-2B,2020-013B,2026-06-30T23:48:38.648736,1.00273662,.0000398,0.0537,209.6757,343.4792,211.3155,0,U,45246,999,2341,0,-.333E-5,0
BEIDOU-3 G2,2020-017A,2026-07-01T04:08:38.025312,1.00271775,.0002588,2.8915,47.5524,43.8424,330.0887,0,U,45344,999,2340,0,-.132E-5,0
AEHF-6 (USA 298),2020-022B,2026-07-01T02:57:38.733408,1.00266704,.0042397,2.5192,301.3286,17.0947,142.8231,0,U,45465,999,2315,0,-.287E-5,0
BEIDOU-3 G3,2020-040A,2026-07-01T02:34:35.128992,1.00272513,.0002511,2.4803,67.4760,332.3137,28.5872,0,U,45807,999,2220,0,-.345E-5,0
APSTAR-6D,2020-045A,2026-06-29T16:27:38.706624,1.00270673,.00022596,0.0501,93.2652,0.9714,204.4597,0,U,45863,999,2198,0,-.307E-5,0
KOREASAT 116,2020-048A,2026-07-01T01:11:38.596128,1.00271099,.0001387,0.0269,293.5682,198.4424,281.2283,0,U,45920,999,2177,0,-.351E-5,0
EXPRESS 103,2020-053A,2026-07-01T02:30:42.999840,1.00273430,.0000438,0.0213,282.1249,127.6593,3.5574,0,U,45985,999,2178,0,-.27E-5,0
EXPRESS 80,2020-053B,2026-07-01T00:03:48.750048,1.00269709,.0001904,0.0185,4.0958,203.1270,152.7673,0,U,45986,999,2176,0,0,0
BSAT-4B,2020-056A,2026-07-01T02:34:27.639840,1.00272690,.0004344,0.0511,160.2221,320.0320,307.3524,0,U,46112,999,2152,0,-.34E-5,0
MEV-2,2020-056B,2026-06-30T22:37:32.303136,1.00272440,.0000244,0.0358,272.5237,243.8402,101.0248,0,U,46113,999,8084,0,0,0
GALAXY 30 (G-30),2020-056C,2026-07-01T05:11:38.827104,1.00272876,.0002242,0.0170,37.0651,61.1179,133.9929,0,U,46114,999,2143,0,.47E-6,0
GAOFEN-13 01,2020-071A,2026-06-30T16:43:38.877600,1.00274904,.00447061,0.4313,86.4106,119.6201,81.9069,0,U,46610,999,2105,0,-.352E-5,0
TIANTONG-1 2,2020-082A,2026-07-01T00:56:11.456736,1.00270200,.000171,0.7736,329.4790,127.3923,321.2092,0,U,46916,999,2079,0,-.344E-5,0
LUCAS (JDRS-1),2020-089A,2026-07-01T00:46:19.902720,1.00269956,.0002434,0.0620,268.1315,169.7756,303.5532,0,U,47202,999,2055,0,-.225E-5,0
SXM-7,2020-096A,2026-07-01T04:35:01.465152,1.00270727,.0003983,0.0253,93.7837,26.1597,142.9000,0,U,47240,999,758,0,-.195E-5,0
CMS-01,2020-099A,2026-07-01T02:26:50.869824,1.00271814,.000302,0.0421,92.5658,182.1625,124.1430,0,U,47256,999,2033,0,-.154E-5,0
TURKSAT 5A,2021-001A,2026-07-01T00:29:21.530112,1.00272167,.00004,0.0184,65.1971,65.5106,186.6416,0,U,47306,999,2010,0,.165E-5,0
TIANTONG-1 3,2021-003A,2026-06-30T16:10:25.771296,1.00273538,.00034451,1.7455,340.1502,122.4214,140.3050,0,U,47321,999,2009,0,-.143E-5,0
TJS-6,2021-010A,2026-07-01T04:27:38.666016,1.00270128,.0003202,0.2159,263.0360,224.2677,37.3363,0,U,47613,999,1994,0,.53E-6,0
SBIRS GEO-5 (USA 315),2021-042A,2026-06-30T22:56:38.776704,1.00272068,.0001893,5.0864,329.2226,135.3330,252.4368,0,U,48618,999,1891,0,-.254E-5,0
FENGYUN 4B,2021-047A,2026-07-01T02:33:05.271264,1.00270782,.0005782,0.1860,78.9368,278.6965,64.5399,0,U,48808,999,1870,0,-.32E-5,0
SXM-8,2021-049A,2026-06-29T15:25:47.049888,1.00271450,.00056605,0.0147,14.0541,20.3526,29.6141,0,U,48838,999,1870,0,-.194E-5,0
TIANLIAN 1-05,2021-063A,2026-06-29T21:02:52.439712,1.00274217,.00008815,1.6252,80.6093,28.4331,141.4657,0,U,49011,999,1820,0,.118E-5,0
STAR ONE D2,2021-069A,2026-07-01T01:43:02.696736,1.00268755,.0002067,0.0158,16.9034,108.5319,109.3606,0,U,49055,999,1808,0,0,0
EUTELSAT QUANTUM,2021-069B,2026-07-01T03:59:23.911008,1.00272148,.000267,0.0106,20.0799,79.5859,287.0962,0,U,49056,999,1806,0,.136E-5,0
ZHONGXING-2E,2021-071A,2026-07-01T02:31:05.462976,1.00269115,.0002289,0.0394,121.8961,16.6682,276.4202,0,U,49062,999,1817,0,-.28E-5,0
